{
    "week": 287,
    "satellites": [
        {
            "Name": "GSAT0218 (GALILEO 22)",
            "Line1": "1 43058U 17079D   24283.83601456  .00000026  00000+0  00000+0 0  9992",
            "Line2": "2 43058  55.2942 238.4378 0004705 280.1241  79.8063  1.70473874 42525",
            "SatelliteNumber": "43058",
            "Classification": "U",
            "LaunchYear": "17",
            "LaunchNumber": "079",
            "PieceOfLaunch": "D",
            "EpochYear": "24",
            "EpochDay": 283.83601456,
            "FirstDerivativeMeanMotion": 2.6e-07,
            "SecondDerivativeMeanMotion": "00000+0",
            "BSTAR": "00000+0",
            "SetNumber": "999",
            "Inclination": 55.2942,
            "RAAN": 238.4378,
            "Eccentricity": 0.0004705,
            "ArgumentOfPerigee": 280.1241,
            "MeanAnomaly": 79.8063,
            "MeanMotion": 1.70473874,
            "RevolutionNumber": "4252"
        },
        {
            "Name": "GSAT0221 (GALILEO 25)",
            "Line1": "1 43564U 18060A   24284.32382834 -.00000077  00000+0  00000+0 0  9993",
            "Line2": "2 43564  57.2990 358.3708 0005037 263.6067  96.3906  1.70476023 38694",
            "SatelliteNumber": "43564",
            "Classification": "U",
            "LaunchYear": "18",
            "LaunchNumber": "060",
            "PieceOfLaunch": "A",
            "EpochYear": "24",
            "EpochDay": 284.32382834,
            "FirstDerivativeMeanMotion": -7.7e-07,
            "SecondDerivativeMeanMotion": "00000+0",
            "BSTAR": "00000+0",
            "SetNumber": "999",
            "Inclination": 57.299,
            "RAAN": 358.3708,
            "Eccentricity": 0.0005037,
            "ArgumentOfPerigee": 263.6067,
            "MeanAnomaly": 96.3906,
            "MeanMotion": 1.70476023,
            "RevolutionNumber": "3869"
        },
        {
            "Name": "GSAT0222 (GALILEO 26)",
            "Line1": "1 43565U 18060B   24281.02300652 -.00000082  00000+0  00000+0 0  9992",
            "Line2": "2 43565  57.3029 358.4618 0004866 235.6004 124.4093  1.70475939 38672",
            "SatelliteNumber": "43565",
            "Classification": "U",
            "LaunchYear": "18",
            "LaunchNumber": "060",
            "PieceOfLaunch": "B",
            "EpochYear": "24",
            "EpochDay": 281.02300652,
            "FirstDerivativeMeanMotion": -8.2e-07,
            "SecondDerivativeMeanMotion": "00000+0",
            "BSTAR": "00000+0",
            "SetNumber": "999",
            "Inclination": 57.3029,
            "RAAN": 358.4618,
            "Eccentricity": 0.0004866,
            "ArgumentOfPerigee": 235.6004,
            "MeanAnomaly": 124.4093,
            "MeanMotion": 1.70475939,
            "RevolutionNumber": "3867"
        },
        {
            "Name": "GSAT0219 (GALILEO 23)",
            "Line1": "1 43566U 18060C   24283.59105417 -.00000077  00000+0  00000+0 0  9993",
            "Line2": "2 43566  57.3018 358.3944 0004057 266.7820  93.2267  1.70476072 38692",
            "SatelliteNumber": "43566",
            "Classification": "U",
            "LaunchYear": "18",
            "LaunchNumber": "060",
            "PieceOfLaunch": "C",
            "EpochYear": "24",
            "EpochDay": 283.59105417,
            "FirstDerivativeMeanMotion": -7.7e-07,
            "SecondDerivativeMeanMotion": "00000+0",
            "BSTAR": "00000+0",
            "SetNumber": "999",
            "Inclination": 57.3018,
            "RAAN": 358.3944,
            "Eccentricity": 0.0004057,
            "ArgumentOfPerigee": 266.782,
            "MeanAnomaly": 93.2267,
            "MeanMotion": 1.70476072,
            "RevolutionNumber": "3869"
        },
        {
            "Name": "GSAT0220 (GALILEO 24)",
            "Line1": "1 43567U 18060D   24282.05200459 -.00000079  00000+0  00000+0 0  9998",
            "Line2": "2 43567  57.3017 358.4368 0004008 261.8115  98.1990  1.70476155 38657",
            "SatelliteNumber": "43567",
            "Classification": "U",
            "LaunchYear": "18",
            "LaunchNumber": "060",
            "PieceOfLaunch": "D",
            "EpochYear": "24",
            "EpochDay": 282.05200459,
            "FirstDerivativeMeanMotion": -7.9e-07,
            "SecondDerivativeMeanMotion": "00000+0",
            "BSTAR": "00000+0",
            "SetNumber": "999",
            "Inclination": 57.3017,
            "RAAN": 358.4368,
            "Eccentricity": 0.0004008,
            "ArgumentOfPerigee": 261.8115,
            "MeanAnomaly": 98.199,
            "MeanMotion": 1.70476155,
            "RevolutionNumber": "3865"
        },
        {
            "Name": "GSAT0223 (GALILEO 27)",
            "Line1": "1 49809U 21116A   24284.84043319 -.00000077  00000+0  00000+0 0  9996",
            "Line2": "2 49809  57.2919 358.2552 0003988 213.9678 147.8719  1.70476130 17700",
            "SatelliteNumber": "49809",
            "Classification": "U",
            "LaunchYear": "21",
            "LaunchNumber": "116",
            "PieceOfLaunch": "A",
            "EpochYear": "24",
            "EpochDay": 284.84043319,
            "FirstDerivativeMeanMotion": -7.7e-07,
            "SecondDerivativeMeanMotion": "00000+0",
            "BSTAR": "00000+0",
            "SetNumber": "999",
            "Inclination": 57.2919,
            "RAAN": 358.2552,
            "Eccentricity": 0.0003988,
            "ArgumentOfPerigee": 213.9678,
            "MeanAnomaly": 147.8719,
            "MeanMotion": 1.7047613,
            "RevolutionNumber": "1770"
        },
        {
            "Name": "GSAT0224 (GALILEO 28)",
            "Line1": "1 49810U 21116B   24285.24052964 -.00000077  00000+0  00000+0 0  9999",
            "Line2": "2 49810  57.2927 358.2429 0003259 211.3978 148.5123  1.70476159 17731",
            "SatelliteNumber": "49810",
            "Classification": "U",
            "LaunchYear": "21",
            "LaunchNumber": "116",
            "PieceOfLaunch": "B",
            "EpochYear": "24",
            "EpochDay": 285.24052964,
            "FirstDerivativeMeanMotion": -7.7e-07,
            "SecondDerivativeMeanMotion": "00000+0",
            "BSTAR": "00000+0",
            "SetNumber": "999",
            "Inclination": 57.2927,
            "RAAN": 358.2429,
            "Eccentricity": 0.0003259,
            "ArgumentOfPerigee": 211.3978,
            "MeanAnomaly": 148.5123,
            "MeanMotion": 1.70476159,
            "RevolutionNumber": "1773"
        },
        {
            "Name": "GSAT0225 (GALILEO 29)",
            "Line1": "1 59598U 24079A   24284.37686697  .00000062  00000+0  00000+0 0  9996",
            "Line2": "2 59598  54.7575 118.2853 0002519 160.4965  20.2129  1.70474410  2834",
            "SatelliteNumber": "59598",
            "Classification": "U",
            "LaunchYear": "24",
            "LaunchNumber": "079",
            "PieceOfLaunch": "A",
            "EpochYear": "24",
            "EpochDay": 284.37686697,
            "FirstDerivativeMeanMotion": 6.2e-07,
            "SecondDerivativeMeanMotion": "00000+0",
            "BSTAR": "00000+0",
            "SetNumber": "999",
            "Inclination": 54.7575,
            "RAAN": 118.2853,
            "Eccentricity": 0.0002519,
            "ArgumentOfPerigee": 160.4965,
            "MeanAnomaly": 20.2129,
            "MeanMotion": 1.7047441,
            "RevolutionNumber": "283"
        },
        {
            "Name": "GSAT0227 (GALILEO 30)",
            "Line1": "1 59600U 24079C   24284.26586624  .00000062  00000+0  00000+0 0  9997",
            "Line2": "2 59600  54.7537 118.2883 0003683 110.4857 249.6271  1.70474400  2886",
            "SatelliteNumber": "59600",
            "Classification": "U",
            "LaunchYear": "24",
            "LaunchNumber": "079",
            "PieceOfLaunch": "C",
            "EpochYear": "24",
            "EpochDay": 284.26586624,
            "FirstDerivativeMeanMotion": 6.2e-07,
            "SecondDerivativeMeanMotion": "00000+0",
            "BSTAR": "00000+0",
            "SetNumber": "999",
            "Inclination": 54.7537,
            "RAAN": 118.2883,
            "Eccentricity": 0.0003683,
            "ArgumentOfPerigee": 110.4857,
            "MeanAnomaly": 249.6271,
            "MeanMotion": 1.704744,
            "RevolutionNumber": "288"
        },
        {
            "Name": "GSAT0232 (GALILEO 32)",
            "Line1": "1 61182U 24167A   24284.26144262  .00000024  00000+0  00000+0 0  9999",
            "Line2": "2 61182  55.4060 238.1862 0016996 273.4839  86.3061  1.73176966   388",
            "SatelliteNumber": "61182",
            "Classification": "U",
            "LaunchYear": "24",
            "LaunchNumber": "167",
            "PieceOfLaunch": "A",
            "EpochYear": "24",
            "EpochDay": 284.26144262,
            "FirstDerivativeMeanMotion": 2.4e-07,
            "SecondDerivativeMeanMotion": "00000+0",
            "BSTAR": "00000+0",
            "SetNumber": "999",
            "Inclination": 55.406,
            "RAAN": 238.1862,
            "Eccentricity": 0.0016996,
            "ArgumentOfPerigee": 273.4839,
            "MeanAnomaly": 86.3061,
            "MeanMotion": 1.73176966,
            "RevolutionNumber": "38"
        }
    ]
}